COSMOS 2550             
1 48865U 21056A   26067.47400841 -.00000192  00000+0 -13338-7 0  9992
2 48865  67.1451  44.6088 0008369 269.6014  90.4182 15.33829151263273
STARLINK-30327          
1 57707U 23129K   26068.51769668  .00007635  00000+0  29314-3 0  9995
2 57707  42.9974  85.9834 0023030  70.8320 289.5022 15.26626807140903
